ONEWEB-0371             
1 49297U 21090U   25008.84092148  .00000042  00000+0  71713-4 0  9992
2 49297  87.9156  49.2131 0001838 100.5591 259.5749 13.19726543157296
ONEWEB-0372             
1 49298U 21090V   25008.77282256 -.00000497  00000+0 -12535-2 0  9997
2 49298  87.9245  18.7834 0001715  90.4305 269.7025 13.20773508160616
ONEWEB-0373             
1 49299U 21090W   25008.72405171  .00000099  00000+0  21089-3 0  9997
2 49299  87.9244  18.8064 0001806  81.2499 278.8839 13.20772606161797
ONEWEB-0374             
1 49300U 21090X   25008.81942356  .00000185  00000+0  46357-3 0  9992
2 49300  87.8986  33.9676 0001644  75.5235 284.6077 13.14502116158675
ONEWEB-0375             
1 49301U 21090Y   25008.71142556  .00000048  00000+0  86146-4 0  9995
2 49301  87.9245  18.7860 0002165  73.1042 287.0329 13.20772535161290
ONEWEB-0376             
1 49302U 21090Z   25008.83934028  .00000036  00000+0  57525-4 0  9998
2 49302  87.9148  49.2085 0001617 102.7892 257.3422 13.19725889157291
ONEWEB-0377             
1 49303U 21090AA  25008.77312153 -.00000006  00000+0 -46641-4 0  9997
2 49303  87.9244  18.7662 0002071  90.6364 269.5007 13.20772701161291
ONEWEB-0378             
1 49304U 21090AB  25008.71945615  .00000096  00000+0  20404-3 0  9992
2 49304  87.9246  18.7823 0001820  85.3147 274.8194 13.20771795160550
